{
  "norad_id": 68689,
  "name": "CYGNUS NG-24",
  "history": [
    {
      "epoch": "2026-04-12T20:23:52.613664Z",
      "apogee_km": 249.75988973456242,
      "perigee_km": 240.97844525769597,
      "latitude_deg": 6.685662313051219e-06,
      "longitude_deg": 116.4696434719097,
      "height_km": 244.41178307962582,
      "semi_major_axis_km": 6623.506167496129,
      "eccentricity": 0.0006629,
      "inclination_deg": 51.6616,
      "raan_deg": 263.488,
      "arg_perigee_deg": 293.1346,
      "mean_anomaly_deg": 66.897,
      "mean_motion_rev_day": 16.10537511
    }
  ]
}